{
  "type": "FeatureCollection",
  "features": [
    {
      "type": "Feature",
      "properties": {
        "norad_id": 36744,
        "name": "COMS 1",
        "group": "weather",
        "lat": -2.558947778482052,
        "lon": -66.12333516791247,
        "alt_km": 35782.07607339112,
        "timestamp": "2025-12-10T05:46:13.440201+00:00",
        "meta_object_name": "COMS 1",
        "meta_object_id": "2010-032A",
        "meta_epoch": "2025-12-09T14:54:38.529792",
        "meta_mean_motion": 1.00270977,
        "meta_eccentricity": 0.0001129,
        "meta_inclination": 4.3339,
        "meta_ra_of_asc_node": 78.0311,
        "meta_arg_of_pericenter": 203.6251,
        "meta_mean_anomaly": 148.7892,
        "meta_ephemeris_type": 0,
        "meta_classification_type": "U",
        "meta_norad_cat_id": 36744,
        "meta_element_set_no": 999,
        "meta_rev_at_epoch": 4918,
        "meta_bstar": 0,
        "meta_mean_motion_dot": -3.42e-06,
        "meta_mean_motion_ddot": 0,
        "tle_line1": "1 36744U 10032A   25343.62127928 -.00000342  00000+0  00000+0 0  9992",
        "tle_line2": "2 36744   4.3339  78.0311 0001129 203.6251 148.7892  1.00270977 49184"
      },
      "geometry": {
        "type": "Point",
        "coordinates": [
          -66.12333516791247,
          -2.558947778482052
        ]
      }
    },
    {
      "type": "Feature",
      "properties": {
        "norad_id": 37214,
        "name": "FENGYUN 3B",
        "group": "weather",
        "lat": -80.78201471314998,
        "lon": 101.49720501123147,
        "alt_km": 851.1124285295946,
        "timestamp": "2025-12-10T05:46:13.440214+00:00",
        "meta_object_name": "FENGYUN 3B",
        "meta_object_id": "2010-059A",
        "meta_epoch": "2025-12-09T20:49:03.131040",
        "meta_mean_motion": 14.14787247,
        "meta_eccentricity": 0.0022217,
        "meta_inclination": 98.9905,
        "meta_ra_of_asc_node": 23.8242,
        "meta_arg_of_pericenter": 5.909,
        "meta_mean_anomaly": 167.4653,
        "meta_ephemeris_type": 0,
        "meta_classification_type": "U",
        "meta_norad_cat_id": 37214,
        "meta_element_set_no": 999,
        "meta_rev_at_epoch": 78065,
        "meta_bstar": 5.4357e-06,
        "meta_mean_motion_dot": -3.5e-07,
        "meta_mean_motion_ddot": 0,
        "tle_line1": "1 37214U 10059A   25343.86739735 -.00000035  00000+0  54357-5 0  9994",
        "tle_line2": "2 37214  98.9905  23.8242 0022217   5.9090 167.4653 14.14787247780650"
      },
      "geometry": {
        "type": "Point",
        "coordinates": [
          101.49720501123147,
          -80.78201471314998
        ]
      }
    },
    {
      "type": "Feature",
      "properties": {
        "norad_id": 37849,
        "name": "SUOMI NPP",
        "group": "weather",
        "lat": 68.78932574621976,
        "lon": -101.8546194537309,
        "alt_km": 819.3628904600191,
        "timestamp": "2025-12-10T05:46:13.440225+00:00",
        "meta_object_name": "SUOMI NPP",
        "meta_object_id": "2011-061A",
        "meta_epoch": "2025-12-09T19:17:20.139648",
        "meta_mean_motion": 14.19513,
        "meta_eccentricity": 0.0002145,
        "meta_inclination": 98.777,
        "meta_ra_of_asc_node": 281.1717,
        "meta_arg_of_pericenter": 125.3105,
        "meta_mean_anomaly": 234.8271,
        "meta_ephemeris_type": 0,
        "meta_classification_type": "U",
        "meta_norad_cat_id": 37849,
        "meta_element_set_no": 999,
        "meta_rev_at_epoch": 73157,
        "meta_bstar": 0.00012421,
        "meta_mean_motion_dot": 2.18e-06,
        "meta_mean_motion_ddot": 0,
        "tle_line1": "1 37849U 11061A   25343.80370532  .00000218  00000+0  12421-3 0  9998",
        "tle_line2": "2 37849  98.7770 281.1717 0002145 125.3105 234.8271 14.19513000731571"
      },
      "geometry": {
        "type": "Point",
        "coordinates": [
          -101.8546194537309,
          68.78932574621976
        ]
      }
    },
    {
      "type": "Feature",
      "properties": {
        "norad_id": 38552,
        "name": "METEOSAT-10 (MSG-3)",
        "group": "weather",
        "lat": 4.095480434766954,
        "lon": 165.95832458877447,
        "alt_km": 35787.51112196399,
        "timestamp": "2025-12-10T05:46:13.440237+00:00",
        "meta_object_name": "METEOSAT-10 (MSG-3)",
        "meta_object_id": "2012-035B",
        "meta_epoch": "2025-12-09T01:35:17.617632",
        "meta_mean_motion": 1.0027383,
        "meta_eccentricity": 8.734e-05,
        "meta_inclination": 4.2204,
        "meta_ra_of_asc_node": 61.7307,
        "meta_arg_of_pericenter": 239.048,
        "meta_mean_anomaly": 161.2485,
        "meta_ephemeris_type": 0,
        "meta_classification_type": "U",
        "meta_norad_cat_id": 38552,
        "meta_element_set_no": 999,
        "meta_rev_at_epoch": 4895,
        "meta_bstar": 0,
        "meta_mean_motion_dot": -5e-08,
        "meta_mean_motion_ddot": 0,
        "tle_line1": "1 38552U 12035B   25343.06617613 -.00000005  00000+0  00000+0 0  9995",
        "tle_line2": "2 38552   4.2204  61.7307 0000873 239.0480 161.2485  1.00273830 48952"
      },
      "geometry": {
        "type": "Point",
        "coordinates": [
          165.95832458877447,
          4.095480434766954
        ]
      }
    },
    {
      "type": "Feature",
      "properties": {
        "norad_id": 38771,
        "name": "METOP-B",
        "group": "weather",
        "lat": -80.42009243593344,
        "lon": 149.39888973992618,
        "alt_km": 828.8303209807236,
        "timestamp": "2025-12-10T05:46:13.440249+00:00",
        "meta_object_name": "METOP-B",
        "meta_object_id": "2012-049A",
        "meta_epoch": "2025-12-09T18:23:11.920416",
        "meta_mean_motion": 14.21406871,
        "meta_eccentricity": 0.0002787,
        "meta_inclination": 98.6803,
        "meta_ra_of_asc_node": 33.7752,
        "meta_arg_of_pericenter": 150.5017,
        "meta_mean_anomaly": 209.6318,
        "meta_ephemeris_type": 0,
        "meta_classification_type": "U",
        "meta_norad_cat_id": 38771,
        "meta_element_set_no": 999,
        "meta_rev_at_epoch": 68635,
        "meta_bstar": 0.00013942,
        "meta_mean_motion_dot": 2.61e-06,
        "meta_mean_motion_ddot": 0,
        "tle_line1": "1 38771U 12049A   25343.76611019  .00000261  00000+0  13942-3 0  9990",
        "tle_line2": "2 38771  98.6803  33.7752 0002787 150.5017 209.6318 14.21406871686353"
      },
      "geometry": {
        "type": "Point",
        "coordinates": [
          149.39888973992618,
          -80.42009243593344
        ]
      }
    },
    {
      "type": "Feature",
      "properties": {
        "norad_id": 39216,
        "name": "INSAT-3D",
        "group": "weather",
        "lat": -0.7411435116187854,
        "lon": -64.67542812496332,
        "alt_km": 35781.750801709786,
        "timestamp": "2025-12-10T05:46:13.440261+00:00",
        "meta_object_name": "INSAT-3D",
        "meta_object_id": "2013-038B",
        "meta_epoch": "2025-12-09T14:14:51.430848",
        "meta_mean_motion": 1.00271179,
        "meta_eccentricity": 0.0001637,
        "meta_inclination": 1.437,
        "meta_ra_of_asc_node": 85.0215,
        "meta_arg_of_pericenter": 162.82,
        "meta_mean_anomaly": 174.0005,
        "meta_ephemeris_type": 0,
        "meta_classification_type": "U",
        "meta_norad_cat_id": 39216,
        "meta_element_set_no": 999,
        "meta_rev_at_epoch": 4517,
        "meta_bstar": 0,
        "meta_mean_motion_dot": -3.36e-06,
        "meta_mean_motion_ddot": 0,
        "tle_line1": "1 39216U 13038B   25343.59365082 -.00000336  00000+0  00000+0 0  9992",
        "tle_line2": "2 39216   1.4370  85.0215 0001637 162.8200 174.0005  1.00271179 45177"
      },
      "geometry": {
        "type": "Point",
        "coordinates": [
          -64.67542812496332,
          -0.7411435116187854
        ]
      }
    },
    {
      "type": "Feature",
      "properties": {
        "norad_id": 39260,
        "name": "FENGYUN 3C",
        "group": "weather",
        "lat": -24.11009183134357,
        "lon": 138.21533273054456,
        "alt_km": 835.2149539332313,
        "timestamp": "2025-12-10T05:46:13.440272+00:00",
        "meta_object_name": "FENGYUN 3C",
        "meta_object_id": "2013-052A",
        "meta_epoch": "2025-12-09T22:01:23.386656",
        "meta_mean_motion": 14.15695092,
        "meta_eccentricity": 0.0014126,
        "meta_inclination": 98.476,
        "meta_ra_of_asc_node": 321.7348,
        "meta_arg_of_pericenter": 204.4213,
        "meta_mean_anomaly": 155.6294,
        "meta_ephemeris_type": 0,
        "meta_classification_type": "U",
        "meta_norad_cat_id": 39260,
        "meta_element_set_no": 999,
        "meta_rev_at_epoch": 63178,
        "meta_bstar": 0.00014179,
        "meta_mean_motion_dot": 2.37e-06,
        "meta_mean_motion_ddot": 0,
        "tle_line1": "1 39260U 13052A   25343.91763179  .00000237  00000+0  14179-3 0  9997",
        "tle_line2": "2 39260  98.4760 321.7348 0014126 204.4213 155.6294 14.15695092631783"
      },
      "geometry": {
        "type": "Point",
        "coordinates": [
          138.21533273054456,
          -24.11009183134357
        ]
      }
    }
  ]
}